start=new Date('2022-09-09T00:00:00.000Z').valueOf();
sats=[{"SITE":"AFETR","MEAN_MOTION":"15.08847587","OBJECT_TYPE":"PAYLOAD","OBJECT_NAME":"STARLINK-3928","ARG_OF_PERICENTER":"46.4174","MEAN_MOTION_DOT":"0.00006066","GP_ID":"212096090","ECCENTRICITY":"0.00020020","TIME_SYSTEM":"UTC","LAUNCH_DATE":"2022-05-14","INCLINATION":"53.2147","RA_OF_ASC_NODE":"255.2548","EPHEMERIS_TYPE":"0","BSTAR":"0.00039878000000","ELEMENT_SET_NO":"999","SEMIMAJOR_AXIS":"6917.857","FILE":"3564431","RCS_SIZE":"LARGE","CENTER_NAME":"EARTH","CLASSIFICATION_TYPE":"U","COUNTRY_CODE":"US","REV_AT_EPOCH":"130","MEAN_MOTION_DDOT":"0.0000000000000","DECAY_DATE":null,"TLE_LINE2":"2 52606  53.2147 255.2548 0002002  46.4174 146.8741 15.08847587  1302","NORAD_CAT_ID":"52606","APOAPSIS":"541.107","PERIOD":"95.437","OBJECT_ID":"2022-052J","MEAN_ANOMALY":"146.8741","TLE_LINE1":"1 52606U 22052J   22251.91667824  .00006066  00000-0  39878-3 0  9991","PERIAPSIS":"538.337","EPOCH":"2022-09-08T22:00:00.999936","REF_FRAME":"TEME","MEAN_ELEMENT_THEORY":"SGP4"},{"INCLINATION":"53.2151","RA_OF_ASC_NODE":"260.2557","BSTAR":"0.00261680000000","EPHEMERIS_TYPE":"0","ELEMENT_SET_NO":"999","SEMIMAJOR_AXIS":"6917.968","FILE":"3564431","RCS_SIZE":"LARGE","CENTER_NAME":"EARTH","CLASSIFICATION_TYPE":"U","MEAN_MOTION":"15.08811329","SITE":"AFETR","OBJECT_TYPE":"PAYLOAD","ARG_OF_PERICENTER":"54.8365","OBJECT_NAME":"STARLINK-3947","GP_ID":"212095444","MEAN_MOTION_DOT":"0.00041572","ECCENTRICITY":"0.00015600","TIME_SYSTEM":"UTC","LAUNCH_DATE":"2022-05-14","EPOCH":"2022-09-08T22:00:00.999936","TLE_LINE1":"1 52607U 22052K   22251.91667824  .00041572  00000-0  26168-2 0  9990","PERIAPSIS":"538.754","REF_FRAME":"TEME","MEAN_ELEMENT_THEORY":"SGP4","COUNTRY_CODE":"US","REV_AT_EPOCH":"130","DECAY_DATE":null,"MEAN_MOTION_DDOT":"0.0000000000000","TLE_LINE2":"2 52607  53.2151 260.2557 0001560  54.8365 330.9837 15.08811329  1304","NORAD_CAT_ID":"52607","APOAPSIS":"540.912","PERIOD":"95.439","MEAN_ANOMALY":"330.9837","OBJECT_ID":"2022-052K"},{"LAUNCH_DATE":"2022-05-14","TIME_SYSTEM":"UTC","ECCENTRICITY":"0.00019330","GP_ID":"212095749","MEAN_MOTION_DOT":"0.00042821","SITE":"AFETR","MEAN_MOTION":"15.08811106","OBJECT_TYPE":"PAYLOAD","OBJECT_NAME":"STARLINK-3979","ARG_OF_PERICENTER":"49.3821","CLASSIFICATION_TYPE":"U","CENTER_NAME":"EARTH","RCS_SIZE":"LARGE","FILE":"3564431","SEMIMAJOR_AXIS":"6917.969","ELEMENT_SET_NO":"999","EPHEMERIS_TYPE":"0","BSTAR":"0.00269440000000","RA_OF_ASC_NODE":"255.2544","INCLINATION":"53.2146","MEAN_ANOMALY":"183.9192","OBJECT_ID":"2022-052L","PERIOD":"95.439","APOAPSIS":"541.171","NORAD_CAT_ID":"52608","TLE_LINE2":"2 52608  53.2146 255.2544 0001933  49.3821 183.9192 15.08811106  1302","DECAY_DATE":null,"MEAN_MOTION_DDOT":"0.0000000000000","REV_AT_EPOCH":"130","COUNTRY_CODE":"US","MEAN_ELEMENT_THEORY":"SGP4","REF_FRAME":"TEME","TLE_LINE1":"1 52608U 22052L   22251.91667824  .00042821  00000-0  26944-2 0  9991","PERIAPSIS":"538.496","EPOCH":"2022-09-08T22:00:00.999936"},{"DECAY_DATE":null,"MEAN_MOTION_DDOT":"0.0000000000000","REV_AT_EPOCH":"130","COUNTRY_CODE":"US","OBJECT_ID":"2022-052M","MEAN_ANOMALY":"218.3160","PERIOD":"95.438","APOAPSIS":"541.145","NORAD_CAT_ID":"52609","TLE_LINE2":"2 52609  53.2161 255.2686 0001966  49.6047 218.3160 15.08827020  1306","REF_FRAME":"TEME","EPOCH":"2022-09-08T22:00:00.999936","TLE_LINE1":"1 52609U 22052M   22251.91667824  .00045288  00000-0  28464-2 0  9991","PERIAPSIS":"538.425","MEAN_ELEMENT_THEORY":"SGP4","GP_ID":"212095182","MEAN_MOTION_DOT":"0.00045288","OBJECT_NAME":"STARLINK-3997","SITE":"AFETR","OBJECT_TYPE":"PAYLOAD","MEAN_MOTION":"15.08827020","ARG_OF_PERICENTER":"49.6047","LAUNCH_DATE":"2022-05-14","TIME_SYSTEM":"UTC","ECCENTRICITY":"0.00019660","SEMIMAJOR_AXIS":"6917.920","EPHEMERIS_TYPE":"0","BSTAR":"0.00284640000000","ELEMENT_SET_NO":"999","RA_OF_ASC_NODE":"255.2686","INCLINATION":"53.2161","CLASSIFICATION_TYPE":"U","CENTER_NAME":"EARTH","RCS_SIZE":"LARGE","FILE":"3564431"},{"TLE_LINE1":"1 52610U 22052N   22251.91667824  .00040589  00000-0  25543-2 0  9997","PERIAPSIS":"538.496","EPOCH":"2022-09-08T22:00:00.999936","REF_FRAME":"TEME","MEAN_ELEMENT_THEORY":"SGP4","REV_AT_EPOCH":"130","COUNTRY_CODE":"US","MEAN_MOTION_DDOT":"0.0000000000000","DECAY_DATE":null,"PERIOD":"95.438","APOAPSIS":"541.046","NORAD_CAT_ID":"52610","TLE_LINE2":"2 52610  53.2135 260.2585 0001843  42.9607 322.8128 15.08831533  1304","MEAN_ANOMALY":"322.8128","OBJECT_ID":"2022-052N","EPHEMERIS_TYPE":"0","BSTAR":"0.00255430000000","ELEMENT_SET_NO":"999","RA_OF_ASC_NODE":"260.2585","INCLINATION":"53.2135","SEMIMAJOR_AXIS":"6917.906","RCS_SIZE":"LARGE","FILE":"3564431","CLASSIFICATION_TYPE":"U","CENTER_NAME":"EARTH","OBJECT_NAME":"STARLINK-3998","SITE":"AFETR","OBJECT_TYPE":"PAYLOAD","ARG_OF_PERICENTER":"42.9607","MEAN_MOTION":"15.08831533","GP_ID":"212095893","MEAN_MOTION_DOT":"0.00040589","ECCENTRICITY":"0.00018430","LAUNCH_DATE":"2022-05-14","TIME_SYSTEM":"UTC"},{"DECAY_DATE":null,"MEAN_MOTION_DDOT":"0.0000000000000","COUNTRY_CODE":"US","REV_AT_EPOCH":"130","MEAN_ANOMALY":"352.1839","OBJECT_ID":"2022-052P","NORAD_CAT_ID":"52611","TLE_LINE2":"2 52611  53.2137 260.2579 0002012  53.6053 352.1839 15.08824040  1303","PERIOD":"95.439","APOAPSIS":"541.186","REF_FRAME":"TEME","TLE_LINE1":"1 52611U 22052P   22251.91667824  .00048526  00000-0  30475-2 0  9997","PERIAPSIS":"538.402","EPOCH":"2022-09-08T22:00:00.999936","MEAN_ELEMENT_THEORY":"SGP4","MEAN_MOTION_DOT":"0.00048526","GP_ID":"212095030","OBJECT_TYPE":"PAYLOAD","SITE":"AFETR","MEAN_MOTION":"15.08824040","OBJECT_NAME":"STARLINK-3980","ARG_OF_PERICENTER":"53.6053","TIME_SYSTEM":"UTC","LAUNCH_DATE":"2022-05-14","ECCENTRICITY":"0.00020120","SEMIMAJOR_AXIS":"6917.929","RA_OF_ASC_NODE":"260.2579","INCLINATION":"53.2137","ELEMENT_SET_NO":"999","EPHEMERIS_TYPE":"0","BSTAR":"0.00304750000000","CLASSIFICATION_TYPE":"U","CENTER_NAME":"EARTH","FILE":"3564431","RCS_SIZE":"LARGE"},{"GP_ID":"212095335","MEAN_MOTION_DOT":"0.00036150","OBJECT_NAME":"STARLINK-4002","SITE":"AFETR","OBJECT_TYPE":"PAYLOAD","MEAN_MOTION":"15.08833465","ARG_OF_PERICENTER":"53.0836","TIME_SYSTEM":"UTC","LAUNCH_DATE":"2022-05-14","ECCENTRICITY":"0.00018320","SEMIMAJOR_AXIS":"6917.900","INCLINATION":"53.2160","RA_OF_ASC_NODE":"255.2613","ELEMENT_SET_NO":"999","EPHEMERIS_TYPE":"0","BSTAR":"0.00227820000000","CENTER_NAME":"EARTH","CLASSIFICATION_TYPE":"U","FILE":"3564431","RCS_SIZE":"LARGE","MEAN_MOTION_DDOT":"0.0000000000000","DECAY_DATE":null,"COUNTRY_CODE":"US","REV_AT_EPOCH":"130","MEAN_ANOMALY":"200.1837","OBJECT_ID":"2022-052Q","TLE_LINE2":"2 52612  53.2160 255.2613 0001832  53.0836 200.1837 15.08833465  1306","NORAD_CAT_ID":"52612","APOAPSIS":"541.033","PERIOD":"95.438","REF_FRAME":"TEME","TLE_LINE1":"1 52612U 22052Q   22251.91667824  .00036150  00000-0  22782-2 0  9990","EPOCH":"2022-09-08T22:00:00.999936","PERIAPSIS":"538.498","MEAN_ELEMENT_THEORY":"SGP4"},{"APOAPSIS":"540.828","PERIOD":"95.438","TLE_LINE2":"2 52613  53.2126 245.2629 0001501  73.8821 274.3436 15.08825545  1300","NORAD_CAT_ID":"52613","MEAN_ANOMALY":"274.3436","OBJECT_ID":"2022-052R","REV_AT_EPOCH":"130","COUNTRY_CODE":"US","MEAN_MOTION_DDOT":"0.0000000000000","DECAY_DATE":null,"MEAN_ELEMENT_THEORY":"SGP4","PERIAPSIS":"538.751","TLE_LINE1":"1 52613U 22052R   22251.91667824  .00048543  00000-0  30484-2 0  9998","EPOCH":"2022-09-08T22:00:00.999936","REF_FRAME":"TEME","ECCENTRICITY":"0.00015010","LAUNCH_DATE":"2022-05-14","TIME_SYSTEM":"UTC","SITE":"AFETR","OBJECT_TYPE":"PAYLOAD","MEAN_MOTION":"15.08825545","ARG_OF_PERICENTER":"73.8821","OBJECT_NAME":"STARLINK-3921","MEAN_MOTION_DOT":"0.00048543","GP_ID":"212095597","RCS_SIZE":"LARGE","FILE":"3564431","CENTER_NAME":"EARTH","CLASSIFICATION_TYPE":"U","ELEMENT_SET_NO":"999","BSTAR":"0.00304840000000","EPHEMERIS_TYPE":"0","INCLINATION":"53.2126","RA_OF_ASC_NODE":"245.2629","SEMIMAJOR_AXIS":"6917.925"},{"SITE":"AFETR","ARG_OF_PERICENTER":"60.4281","OBJECT_TYPE":"PAYLOAD","MEAN_MOTION":"15.08827984","OBJECT_NAME":"STARLINK-3982","GP_ID":"212096091","MEAN_MOTION_DOT":"0.00047451","ECCENTRICITY":"0.00017750","LAUNCH_DATE":"2022-05-14","TIME_SYSTEM":"UTC","EPHEMERIS_TYPE":"0","ELEMENT_SET_NO":"999","BSTAR":"0.00298050000000","RA_OF_ASC_NODE":"245.2610","INCLINATION":"53.2129","SEMIMAJOR_AXIS":"6917.917","RCS_SIZE":"LARGE","FILE":"3564431","CLASSIFICATION_TYPE":"U","CENTER_NAME":"EARTH","REV_AT_EPOCH":"130","COUNTRY_CODE":"US","DECAY_DATE":null,"MEAN_MOTION_DDOT":"0.0000000000000","PERIOD":"95.438","APOAPSIS":"541.010","NORAD_CAT_ID":"52614","TLE_LINE2":"2 52614  53.2129 245.2610 0001775  60.4281 267.7984 15.08827984  1302","MEAN_ANOMALY":"267.7984","OBJECT_ID":"2022-052S","EPOCH":"2022-09-08T22:00:00.999936","TLE_LINE1":"1 52614U 22052S   22251.91667824  .00047451  00000-0  29805-2 0  9991","PERIAPSIS":"538.554","REF_FRAME":"TEME","MEAN_ELEMENT_THEORY":"SGP4"},{"RCS_SIZE":"LARGE","FILE":"3564431","CLASSIFICATION_TYPE":"U","CENTER_NAME":"EARTH","EPHEMERIS_TYPE":"0","BSTAR":"0.00225840000000","ELEMENT_SET_NO":"999","RA_OF_ASC_NODE":"260.2553","INCLINATION":"53.2151","SEMIMAJOR_AXIS":"6917.898","ECCENTRICITY":"0.00018130","LAUNCH_DATE":"2022-05-14","TIME_SYSTEM":"UTC","SITE":"AFETR","MEAN_MOTION":"15.08834362","OBJECT_TYPE":"PAYLOAD","ARG_OF_PERICENTER":"62.3077","OBJECT_NAME":"STARLINK-4011","GP_ID":"212095445","MEAN_MOTION_DOT":"0.00035832","MEAN_ELEMENT_THEORY":"SGP4","PERIAPSIS":"538.508","TLE_LINE1":"1 52615U 22052T   22251.91667824  .00035832  00000-0  22584-2 0  9999","EPOCH":"2022-09-08T22:00:00.999936","REF_FRAME":"TEME","PERIOD":"95.438","APOAPSIS":"541.017","NORAD_CAT_ID":"52615","TLE_LINE2":"2 52615  53.2151 260.2553 0001813  62.3077   3.4849 15.08834362  1301","MEAN_ANOMALY":"3.4849","OBJECT_ID":"2022-052T","REV_AT_EPOCH":"130","COUNTRY_CODE":"US","DECAY_DATE":null,"MEAN_MOTION_DDOT":"0.0000000000000"}];
